[{"OBJECT_NAME":"STARLINK-34335","OBJECT_ID":"2025-126U","EPOCH":"2025-10-04T20:44:05.692128","MEAN_MOTION":14.98350087,"ECCENTRICITY":0.0002466,"INCLINATION":69.9999,"RA_OF_ASC_NODE":67.2285,"ARG_OF_PERICENTER":263.0957,"MEAN_ANOMALY":96.9921,"EPHEMERIS_TYPE":0,"CLASSIFICATION_TYPE":"U","NORAD_CAT_ID":64362,"ELEMENT_SET_NO":999,"REV_AT_EPOCH":1734,"BSTAR":0.00081027,"MEAN_MOTION_DOT":9.593e-5,"MEAN_MOTION_DDOT":0},{"OBJECT_NAME":"STARLINK-34408","OBJECT_ID":"2025-126V","EPOCH":"2025-10-04T20:32:05.347680","MEAN_MOTION":14.98357816,"ECCENTRICITY":0.0003172,"INCLINATION":70.0002,"RA_OF_ASC_NODE":67.1989,"ARG_OF_PERICENTER":273.5219,"MEAN_ANOMALY":86.5577,"EPHEMERIS_TYPE":0,"CLASSIFICATION_TYPE":"U","NORAD_CAT_ID":64363,"ELEMENT_SET_NO":999,"REV_AT_EPOCH":1734,"BSTAR":0.00064337,"MEAN_MOTION_DOT":7.597e-5,"MEAN_MOTION_DDOT":0},{"OBJECT_NAME":"STARLINK-34476","OBJECT_ID":"2025-126W","EPOCH":"2025-10-04T16:13:44.385024","MEAN_MOTION":14.9832833,"ECCENTRICITY":0.0003076,"INCLINATION":70.0002,"RA_OF_ASC_NODE":67.7768,"ARG_OF_PERICENTER":265.6367,"MEAN_ANOMALY":94.4441,"EPHEMERIS_TYPE":0,"CLASSIFICATION_TYPE":"U","NORAD_CAT_ID":64364,"ELEMENT_SET_NO":999,"REV_AT_EPOCH":1731,"BSTAR":0.00072399,"MEAN_MOTION_DOT":8.556e-5,"MEAN_MOTION_DDOT":0},{"OBJECT_NAME":"STARLINK-34479","OBJECT_ID":"2025-126X","EPOCH":"2025-10-04T17:13:52.221792","MEAN_MOTION":14.98345849,"ECCENTRICITY":0.0003551,"INCLINATION":70,"RA_OF_ASC_NODE":67.9215,"ARG_OF_PERICENTER":273.8463,"MEAN_ANOMALY":86.229,"EPHEMERIS_TYPE":0,"CLASSIFICATION_TYPE":"U","NORAD_CAT_ID":64365,"ELEMENT_SET_NO":999,"REV_AT_EPOCH":1731,"BSTAR":0.0011873,"MEAN_MOTION_DOT":0.00014108,"MEAN_MOTION_DDOT":0},{"OBJECT_NAME":"STARLINK-34484","OBJECT_ID":"2025-126Y","EPOCH":"2025-10-04T20:38:05.477568","MEAN_MOTION":14.98342989,"ECCENTRICITY":0.0003209,"INCLINATION":70.0011,"RA_OF_ASC_NODE":67.2127,"ARG_OF_PERICENTER":274.3777,"MEAN_ANOMALY":85.7015,"EPHEMERIS_TYPE":0,"CLASSIFICATION_TYPE":"U","NORAD_CAT_ID":64366,"ELEMENT_SET_NO":999,"REV_AT_EPOCH":1855,"BSTAR":0.00072063,"MEAN_MOTION_DOT":8.519e-5,"MEAN_MOTION_DDOT":0},{"OBJECT_NAME":"STARLINK-34483","OBJECT_ID":"2025-126Z","EPOCH":"2025-10-04T15:55:56.290080","MEAN_MOTION":14.98342524,"ECCENTRICITY":0.0003933,"INCLINATION":70.0009,"RA_OF_ASC_NODE":67.7336,"ARG_OF_PERICENTER":277.2008,"MEAN_ANOMALY":82.8704,"EPHEMERIS_TYPE":0,"CLASSIFICATION_TYPE":"U","NORAD_CAT_ID":64367,"ELEMENT_SET_NO":999,"REV_AT_EPOCH":1731,"BSTAR":0.00081699,"MEAN_MOTION_DOT":9.672e-5,"MEAN_MOTION_DDOT":0},{"OBJECT_NAME":"STARLINK-34457","OBJECT_ID":"2025-126AA","EPOCH":"2025-10-04T20:02:03.897312","MEAN_MOTION":14.98362594,"ECCENTRICITY":0.0003456,"INCLINATION":70.0005,"RA_OF_ASC_NODE":67.5265,"ARG_OF_PERICENTER":269.7724,"MEAN_ANOMALY":90.3039,"EPHEMERIS_TYPE":0,"CLASSIFICATION_TYPE":"U","NORAD_CAT_ID":64368,"ELEMENT_SET_NO":999,"REV_AT_EPOCH":1733,"BSTAR":0.00075014,"MEAN_MOTION_DOT":8.877e-5,"MEAN_MOTION_DDOT":0},{"OBJECT_NAME":"STARLINK-34444","OBJECT_ID":"2025-126AB","EPOCH":"2025-10-04T20:08:18.896640","MEAN_MOTION":14.98343542,"ECCENTRICITY":0.0003241,"INCLINATION":70.0005,"RA_OF_ASC_NODE":67.5377,"ARG_OF_PERICENTER":270.5728,"MEAN_ANOMALY":89.506,"EPHEMERIS_TYPE":0,"CLASSIFICATION_TYPE":"U","NORAD_CAT_ID":64369,"ELEMENT_SET_NO":999,"REV_AT_EPOCH":1733,"BSTAR":0.0007313,"MEAN_MOTION_DOT":8.647e-5,"MEAN_MOTION_DDOT":0},{"OBJECT_NAME":"STARLINK-11732 [DTC]","OBJECT_ID":"2025-127A","EPOCH":"2025-10-04T19:06:36.330048","MEAN_MOTION":15.70941129,"ECCENTRICITY":9.75e-5,"INCLINATION":42.9993,"RA_OF_ASC_NODE":304.2813,"ARG_OF_PERICENTER":327.4342,"MEAN_ANOMALY":32.6465,"EPHEMERIS_TYPE":0,"CLASSIFICATION_TYPE":"U","NORAD_CAT_ID":64370,"ELEMENT_SET_NO":999,"REV_AT_EPOCH":1898,"BSTAR":0.0025754,"MEAN_MOTION_DOT":0.003456,"MEAN_MOTION_DDOT":0},{"OBJECT_NAME":"STARLINK-11731 [DTC]","OBJECT_ID":"2025-127B","EPOCH":"2025-10-04T13:23:17.300832","MEAN_MOTION":15.70898363,"ECCENTRICITY":0.0001975,"INCLINATION":42.9993,"RA_OF_ASC_NODE":305.9412,"ARG_OF_PERICENTER":253.1016,"MEAN_ANOMALY":106.9635,"EPHEMERIS_TYPE":0,"CLASSIFICATION_TYPE":"U","NORAD_CAT_ID":64371,"ELEMENT_SET_NO":999,"REV_AT_EPOCH":1894,"BSTAR":0.0013326,"MEAN_MOTION_DOT":0.00174612,"MEAN_MOTION_DDOT":0},{"OBJECT_NAME":"STARLINK-11746 [DTC]","OBJECT_ID":"2025-127C","EPOCH":"2025-10-04T18:43:40.099872","MEAN_MOTION":15.70956353,"ECCENTRICITY":0.0001029,"INCLINATION":42.999,"RA_OF_ASC_NODE":304.1513,"ARG_OF_PERICENTER":324.9937,"MEAN_ANOMALY":35.0862,"EPHEMERIS_TYPE":0,"CLASSIFICATION_TYPE":"U","NORAD_CAT_ID":64372,"ELEMENT_SET_NO":999,"REV_AT_EPOCH":1898,"BSTAR":0.0022687,"MEAN_MOTION_DOT":0.00303,"MEAN_MOTION_DDOT":0},{"OBJECT_NAME":"STARLINK-11748 [DTC]","OBJECT_ID":"2025-127D","EPOCH":"2025-10-04T10:36:46.632096","MEAN_MOTION":15.7089408,"ECCENTRICITY":0.0001308,"INCLINATION":42.9993,"RA_OF_ASC_NODE":306.8002,"ARG_OF_PERICENTER":282.4966,"MEAN_ANOMALY":77.5755,"EPHEMERIS_TYPE":0,"CLASSIFICATION_TYPE":"U","NORAD_CAT_ID":64373,"ELEMENT_SET_NO":999,"REV_AT_EPOCH":1892,"BSTAR":0.0014652,"MEAN_MOTION_DOT":0.0019241,"MEAN_MOTION_DDOT":0},{"OBJECT_NAME":"STARLINK-11739 [DTC]","OBJECT_ID":"2025-127E","EPOCH":"2025-10-04T12:14:28.987872","MEAN_MOTION":15.70874659,"ECCENTRICITY":9.99e-5,"INCLINATION":42.9994,"RA_OF_ASC_NODE":305.5559,"ARG_OF_PERICENTER":281.0826,"MEAN_ANOMALY":78.9929,"EPHEMERIS_TYPE":0,"CLASSIFICATION_TYPE":"U","NORAD_CAT_ID":64374,"ELEMENT_SET_NO":999,"REV_AT_EPOCH":1894,"BSTAR":0.0011435,"MEAN_MOTION_DOT":0.00149149,"MEAN_MOTION_DDOT":0},{"OBJECT_NAME":"STARLINK-11738 [DTC]","OBJECT_ID":"2025-127F","EPOCH":"2025-10-04T10:35:27.896640","MEAN_MOTION":15.70831886,"ECCENTRICITY":0.0001686,"INCLINATION":42.9985,"RA_OF_ASC_NODE":306.7921,"ARG_OF_PERICENTER":270.7431,"MEAN_ANOMALY":89.3243,"EPHEMERIS_TYPE":0,"CLASSIFICATION_TYPE":"U","NORAD_CAT_ID":64375,"ELEMENT_SET_NO":999,"REV_AT_EPOCH":1892,"BSTAR":0.0021203,"MEAN_MOTION_DOT":0.0028092,"MEAN_MOTION_DDOT":0},{"OBJECT_NAME":"STARLINK-11745 [DTC]","OBJECT_ID":"2025-127G","EPOCH":"2025-10-04T18:58:57.508896","MEAN_MOTION":15.70940081,"ECCENTRICITY":8.87e-5,"INCLINATION":42.9995,"RA_OF_ASC_NODE":304.2352,"ARG_OF_PERICENTER":325.9679,"MEAN_ANOMALY":34.1132,"EPHEMERIS_TYPE":0,"CLASSIFICATION_TYPE":"U","NORAD_CAT_ID":64376,"ELEMENT_SET_NO":999,"REV_AT_EPOCH":1898,"BSTAR":0.0026488,"MEAN_MOTION_DOT":0.00355893,"MEAN_MOTION_DDOT":0},{"OBJECT_NAME":"STARLINK-11742 [DTC]","OBJECT_ID":"2025-127H","EPOCH":"2025-10-04T13:15:38.606688","MEAN_MOTION":15.70900585,"ECCENTRICITY":0.000165,"INCLINATION":42.9983,"RA_OF_ASC_NODE":305.8962,"ARG_OF_PERICENTER":270.4937,"MEAN_ANOMALY":89.5741,"EPHEMERIS_TYPE":0,"CLASSIFICATION_TYPE":"U","NORAD_CAT_ID":64377,"ELEMENT_SET_NO":999,"REV_AT_EPOCH":1894,"BSTAR":0.0012694,"MEAN_MOTION_DOT":0.00166146,"MEAN_MOTION_DDOT":0},{"OBJECT_NAME":"STARLINK-11711 [DTC]","OBJECT_ID":"2025-127J","EPOCH":"2025-10-04T18:36:01.120608","MEAN_MOTION":15.7092806,"ECCENTRICITY":9.43e-5,"INCLINATION":42.9986,"RA_OF_ASC_NODE":304.1071,"ARG_OF_PERICENTER":292.0269,"MEAN_ANOMALY":68.0499,"EPHEMERIS_TYPE":0,"CLASSIFICATION_TYPE":"U","NORAD_CAT_ID":64378,"ELEMENT_SET_NO":999,"REV_AT_EPOCH":1909,"BSTAR":0.0023395,"MEAN_MOTION_DOT":0.00312463,"MEAN_MOTION_DDOT":0},{"OBJECT_NAME":"STARLINK-11743 [DTC]","OBJECT_ID":"2025-127K","EPOCH":"2025-10-04T20:00:01.000224","MEAN_MOTION":15.70847312,"ECCENTRICITY":0.000173,"INCLINATION":42.9998,"RA_OF_ASC_NODE":304.353,"ARG_OF_PERICENTER":264.2831,"MEAN_ANOMALY":185.5879,"EPHEMERIS_TYPE":0,"CLASSIFICATION_TYPE":"U","NORAD_CAT_ID":64379,"ELEMENT_SET_NO":999,"REV_AT_EPOCH":598,"BSTAR":8.6969e-5,"MEAN_MOTION_DOT":0.00010729,"MEAN_MOTION_DDOT":0},{"OBJECT_NAME":"STARLINK-11744 [DTC]","OBJECT_ID":"2025-127L","EPOCH":"2025-10-04T19:14:15.070848","MEAN_MOTION":15.70964783,"ECCENTRICITY":9.81e-5,"INCLINATION":42.9988,"RA_OF_ASC_NODE":304.3205,"ARG_OF_PERICENTER":31.1233,"MEAN_ANOMALY":328.9693,"EPHEMERIS_TYPE":0,"CLASSIFICATION_TYPE":"U","NORAD_CAT_ID":64380,"ELEMENT_SET_NO":999,"REV_AT_EPOCH":1898,"BSTAR":0.003006,"MEAN_MOTION_DOT":0.00406898,"MEAN_MOTION_DDOT":0},{"OBJECT_NAME":"STARLINK-11692 [DTC]","OBJECT_ID":"2025-127M","EPOCH":"2025-10-04T12:45:03.767040","MEAN_MOTION":15.70909206,"ECCENTRICITY":0.0001504,"INCLINATION":42.998,"RA_OF_ASC_NODE":305.724,"ARG_OF_PERICENTER":251.2371,"MEAN_ANOMALY":108.8333,"EPHEMERIS_TYPE":0,"CLASSIFICATION_TYPE":"U","NORAD_CAT_ID":64381,"ELEMENT_SET_NO":999,"REV_AT_EPOCH":1905,"BSTAR":0.0018387,"MEAN_MOTION_DOT":0.00243227,"MEAN_MOTION_DDOT":0},{"OBJECT_NAME":"STARLINK-11740 [DTC]","OBJECT_ID":"2025-127N","EPOCH":"2025-10-04T18:28:22.365984","MEAN_MOTION":15.70906756,"ECCENTRICITY":8.03e-5,"INCLINATION":42.9978,"RA_OF_ASC_NODE":304.0624,"ARG_OF_PERICENTER":295.9401,"MEAN_ANOMALY":64.1384,"EPHEMERIS_TYPE":0,"CLASSIFICATION_TYPE":"U","NORAD_CAT_ID":64382,"ELEMENT_SET_NO":999,"REV_AT_EPOCH":1898,"BSTAR":0.0018591,"MEAN_MOTION_DOT":0.00245992,"MEAN_MOTION_DDOT":0},{"OBJECT_NAME":"STARLINK-34299","OBJECT_ID":"2025-127P","EPOCH":"2025-10-04T13:16:53.969088","MEAN_MOTION":15.27620755,"ECCENTRICITY":0.0001317,"INCLINATION":43.0014,"RA_OF_ASC_NODE":341.9433,"ARG_OF_PERICENTER":259.3868,"MEAN_ANOMALY":100.6835,"EPHEMERIS_TYPE":0,"CLASSIFICATION_TYPE":"U","NORAD_CAT_ID":64383,"ELEMENT_SET_NO":999,"REV_AT_EPOCH":1853,"BSTAR":0.0019894,"MEAN_MOTION_DOT":0.00054959,"MEAN_MOTION_DDOT":0},{"OBJECT_NAME":"STARLINK-34271","OBJECT_ID":"2025-127Q","EPOCH":"2025-10-04T14:34:24.215808","MEAN_MOTION":15.27605806,"ECCENTRICITY":0.0001732,"INCLINATION":43.0007,"RA_OF_ASC_NODE":341.4832,"ARG_OF_PERICENTER":277.5332,"MEAN_ANOMALY":82.5323,"EPHEMERIS_TYPE":0,"CLASSIFICATION_TYPE":"U","NORAD_CAT_ID":64384,"ELEMENT_SET_NO":999,"REV_AT_EPOCH":1859,"BSTAR":0.0015354,"MEAN_MOTION_DOT":0.00042265,"MEAN_MOTION_DDOT":0}]
